[{"OBJECT_NAME":"STARLINK-32747","OBJECT_ID":"2025-008P","EPOCH":"2026-03-09T13:53:31.274880","MEAN_MOTION":15.27596418,"ECCENTRICITY":2.64e-5,"INCLINATION":42.9979,"RA_OF_ASC_NODE":278.88,"ARG_OF_PERICENTER":266.5964,"MEAN_ANOMALY":93.4858,"EPHEMERIS_TYPE":0,"CLASSIFICATION_TYPE":"U","NORAD_CAT_ID":62600,"ELEMENT_SET_NO":999,"REV_AT_EPOCH":6554,"BSTAR":0.00086309,"MEAN_MOTION_DOT":0.00023576,"MEAN_MOTION_DDOT":0},{"OBJECT_NAME":"FLOCK 4G-1","OBJECT_ID":"2025-009BK","EPOCH":"2026-03-09T18:13:41.778912","MEAN_MOTION":15.27421081,"ECCENTRICITY":0.00031801,"INCLINATION":97.4059,"RA_OF_ASC_NODE":151.3158,"ARG_OF_PERICENTER":323.1401,"MEAN_ANOMALY":36.9619,"EPHEMERIS_TYPE":0,"CLASSIFICATION_TYPE":"U","NORAD_CAT_ID":62666,"ELEMENT_SET_NO":999,"REV_AT_EPOCH":6372,"BSTAR":0.00050653644,"MEAN_MOTION_DOT":0.00013534,"MEAN_MOTION_DDOT":0}]
